{
    "links": {
        "self": "http://www.neowsapp.com/rest/v1/neo/3836964?api_key=iIulBulltgU6a56xZRHN4H3l9WmuAYTsLGpBGhQ2"
    },
    "id": "3836964",
    "neo_reference_id": "3836964",
    "name": "(2018 YW)",
    "designation": "2018 YW",
    "nasa_jpl_url": "http://ssd.jpl.nasa.gov/sbdb.cgi?sstr=3836964",
    "absolute_magnitude_h": 19.7,
    "estimated_diameter": {
        "kilometers": {
            "estimated_diameter_min": 0.3051792326,
            "estimated_diameter_max": 0.6824015094
        },
        "meters": {
            "estimated_diameter_min": 305.1792325939,
            "estimated_diameter_max": 682.4015094011
        },
        "miles": {
            "estimated_diameter_min": 0.1896295249,
            "estimated_diameter_max": 0.4240245083
        },
        "feet": {
            "estimated_diameter_min": 1001.2442334633,
            "estimated_diameter_max": 2238.8501681036
        }
    },
    "is_potentially_hazardous_asteroid": false,
    "close_approach_data": [
        {
            "close_approach_date": "2019-01-19",
            "close_approach_date_full": "2019-Jan-19 02:16",
            "epoch_date_close_approach": 1547864160000,
            "relative_velocity": {
                "kilometers_per_second": "36.8760166115",
                "kilometers_per_hour": "132753.6598012528",
                "miles_per_hour": "82487.9615581729"
            },
            "miss_distance": {
                "astronomical": "0.3302633676",
                "lunar": "128.4724499964",
                "kilometers": "49406696.331987012",
                "miles": "30699897.5275322856"
            },
            "orbiting_body": "Earth"
        },
        {
            "close_approach_date": "2083-01-19",
            "close_approach_date_full": "2083-Jan-19 17:26",
            "epoch_date_close_approach": 3567605160000,
            "relative_velocity": {
                "kilometers_per_second": "36.2595712734",
                "kilometers_per_hour": "130534.4565842206",
                "miles_per_hour": "81109.0349814564"
            },
            "miss_distance": {
                "astronomical": "0.2960851427",
                "lunar": "115.1771205103",
                "kilometers": "44293706.686566049",
                "miles": "27522833.0843035162"
            },
            "orbiting_body": "Earth"
        },
        {
            "close_approach_date": "2115-01-19",
            "close_approach_date_full": "2115-Jan-19 02:28",
            "epoch_date_close_approach": 4577308080000,
            "relative_velocity": {
                "kilometers_per_second": "36.9141071658",
                "kilometers_per_hour": "132890.7857970553",
                "miles_per_hour": "82573.166319287"
            },
            "miss_distance": {
                "astronomical": "0.3077333084",
                "lunar": "119.7082569676",
                "kilometers": "46036247.464693108",
                "miles": "28605597.7153685704"
            },
            "orbiting_body": "Earth"
        },
        {
            "close_approach_date": "2147-01-16",
            "close_approach_date_full": "2147-Jan-16 06:32",
            "epoch_date_close_approach": 5586906720000,
            "relative_velocity": {
                "kilometers_per_second": "38.0886373072",
                "kilometers_per_hour": "137119.0943058707",
                "miles_per_hour": "85200.472792445"
            },
            "miss_distance": {
                "astronomical": "0.3581011422",
                "lunar": "139.3013443158",
                "kilometers": "53571168.117687114",
                "miles": "33287580.3027216132"
            },
            "orbiting_body": "Earth"
        },
        {
            "close_approach_date": "2179-01-21",
            "close_approach_date_full": "2179-Jan-21 22:46",
            "epoch_date_close_approach": 6597240360000,
            "relative_velocity": {
                "kilometers_per_second": "35.2734122062",
                "kilometers_per_hour": "126984.2839424687",
                "miles_per_hour": "78903.0957641412"
            },
            "miss_distance": {
                "astronomical": "0.2269261579",
                "lunar": "88.2742754231",
                "kilometers": "33947669.869123673",
                "miles": "21094103.9100777674"
            },
            "orbiting_body": "Earth"
        }
    ],
    "orbital_data": {
        "orbit_id": "17",
        "orbit_determination_date": "2020-11-01 05:39:26",
        "first_observation_date": "2018-12-17",
        "last_observation_date": "2019-07-29",
        "data_arc_in_days": 224,
        "observations_used": 96,
        "orbit_uncertainty": "3",
        "minimum_orbit_intersection": ".175071",
        "jupiter_tisserand_invariant": "2.170",
        "epoch_osculation": "2459000.5",
        "eccentricity": ".7441420937906271",
        "semi_major_axis": "3.445993496410972",
        "inclination": "52.63304104454576",
        "ascending_node_longitude": "124.6198029718643",
        "orbital_period": "2336.523250922615",
        "perihelion_distance": ".8816846808028275",
        "perihelion_argument": "67.69197196724362",
        "aphelion_distance": "6.010302312019117",
        "perihelion_time": "2458542.303505950854",
        "mean_anomaly": "70.59666014132713",
        "mean_motion": ".1540750770863709",
        "equinox": "J2000",
        "orbit_class": {
            "orbit_class_type": "APO",
            "orbit_class_description": "Near-Earth asteroid orbits which cross the Earth’s orbit similar to that of 1862 Apollo",
            "orbit_class_range": "a (semi-major axis) > 1.0 AU; q (perihelion) < 1.017 AU"
        }
    },
    "is_sentry_object": false
}